NORAD_CAT_ID,OBJECT_NAME,OBJECT_TYPE,EPOCH,MEAN_MOTION,ECCENTRICITY,INCLINATION,RA_OF_ASC_NODE,ARG_OF_PERICENTER,MEAN_ANOMALY,BSTAR,MEAN_MOTION_DOT,MEAN_MOTION_DDOT,TLE_LINE0,TLE_LINE1,TLE_LINE2,SEMIMAJOR_AXIS,PERIOD,APOGEE,PERIGEE,DECAYED
53565.0,STARLINK-4575,PAYLOAD,2022-08-24 14:00:01,15.90146533,0.0039423999999999,53.2174,131.3929,56.0316,44.9425,-0.0038933,-0.01289088,0.00047679,0 STARLINK-4575,1 53565U 22101AQ  22236.58334491 -.01289088  47679-3 -38933-2 0  9994,2 53565  53.2174 131.3929 0039424  56.0316  44.9425 15.90146533   778,6680.009,90.558,328.21,275.539,0.0
53565.0,STARLINK-4575,PAYLOAD,2022-08-25 06:00:02,15.88445343,0.003154,53.2171,128.0166,57.1596,260.4037,-0.0046001,-0.01359446,0.00051697,0 STARLINK-4575,1 53565U 22101AQ  22237.25002315 -.01359446  51697-3 -46001-2 0  9992,2 53565  53.2171 128.0166 0031540  57.1596 260.4037 15.88445343   877,6684.778,90.655,327.727,285.559,0.0
53565.0,STARLINK-4575,PAYLOAD,2022-08-25 12:00:00,15.87794904,0.0029430999999999,53.2175,126.7504,57.6953,249.9288,-0.0047938,-0.01363081,0.00051638,0 STARLINK-4575,1 53565U 22101AQ  22237.50001157 -.01363081  51638-3 -47938-2 0  9998,2 53565  53.2175 126.7504 0029431  57.6953 249.9288 15.87794904   914,6686.604,90.692,328.148,288.789,0.0
53565.0,STARLINK-4575,PAYLOAD,2022-08-25 14:00:01,15.87545978,0.0028665,53.2174,126.3284,57.2361,6.9778,-0.0046241,-0.01296711,0.0004704,0 STARLINK-4575,1 53565U 22101AQ  22237.58334491 -.01296711  47040-3 -46241-2 0  9999,2 53565  53.2174 126.3284 0028665  57.2361   6.9778 15.87545978  1305,6687.302,90.706,328.337,289.998,0.0
53565.0,STARLINK-4575,PAYLOAD,2022-08-25 18:00:00,15.8714558,0.0026895,53.2175,125.487,57.8146,239.3476,-0.004994,-0.01366087,0.00051538,0 STARLINK-4575,1 53565U 22101AQ  22237.75001157 -.01366087  51538-3 -49940-2 0  9998,2 53565  53.2175 125.4870 0026895  57.8146 239.3476 15.87145580   959,6688.427,90.729,328.281,292.3040000000001,0.0
53565.0,STARLINK-4575,PAYLOAD,2022-08-25 22:00:00,15.86694697,0.0025361999999999,53.2176,124.6463,56.8377,113.0299,-0.0049902,-0.0133066,0.00048927,0 STARLINK-4575,1 53565U 22101AQ  22237.91667824 -.01330660  48927-3 -49902-2 0  9999,2 53565  53.2176 124.6463 0025362  56.8377 113.0299 15.86694697  1300,6689.694,90.755,328.526,294.593,0.0
53565.0,STARLINK-4575,PAYLOAD,2022-08-26 12:00:00,15.85196648,0.0019565,53.2174,121.7037,57.9637,204.2941,-0.0056097,-0.01211739,0.0,0 STARLINK-4575,1 53565U 22101AQ  22238.50001157 -.01211739  00000-0 -56097-2 0  9991,2 53565  53.2174 121.7037 0019565  57.9637 204.2941 15.85196648  1075,6693.908,90.84,328.87,302.676,0.0
53565.0,STARLINK-4575,PAYLOAD,2022-08-26 14:00:01,15.84954063,0.0018657,53.2172,121.2833,57.1475,320.9818,-0.0054688,-0.01170665,0.0,0 STARLINK-4575,1 53565U 22101AQ  22238.58335648 -.01170665  00000-0 -54688-2 0  9990,2 53565  53.2172 121.2833 0018657  57.1475 320.9818 15.84954063  1302,6694.590999999999,90.854,328.946,303.966,0.0
53565.0,STARLINK-4575,PAYLOAD,2022-08-26 22:00:00,15.84079981,0.0016024,53.2172,119.6079,56.1702,64.4251,-0.0056575,-0.01156604,0.0,0 STARLINK-4575,1 53565U 22101AQ  22238.91667824 -.01156604  00000-0 -56575-2 0  9995,2 53565  53.2172 119.6079 0016024  56.1702  64.4251 15.84079981  1301,6697.054,90.905,329.65,308.187,0.0
53565.0,STARLINK-4575,PAYLOAD,2022-08-27 14:00:01,15.82368267,0.0009379,53.2175,116.2576,52.7866,269.7362,-0.0064258,-0.01216012,0.0,0 STARLINK-4575,1 53565U 22101AQ  22239.58334491 -.01216012  00000-0 -64258-2 0  9997,2 53565  53.2175 116.2576 0009379  52.7866 269.7362 15.82368267  1306,6701.882,91.003,330.033,317.462,0.0
53565.0,STARLINK-4575,PAYLOAD,2022-08-27 20:00:01,15.81721778,0.0007352999999999,53.2176,115.0058,46.2674,260.9024,-0.0066712,-0.01221212,0.0,0 STARLINK-4575,1 53565U 22101AQ  22239.83334491 -.01221212  00000-0 -66712-2 0  9990,2 53565  53.2176 115.0058 0007353  46.2674 260.9024 15.81721778  1288,6703.708000000001,91.04,330.5030000000001,320.644,0.0
53565.0,STARLINK-4575,PAYLOAD,2022-08-27 22:00:00,15.81478253,0.0006702,53.2176,114.5888,42.0057,19.9255,-0.0064699,-0.0117559,0.0,0 STARLINK-4575,1 53565U 22101AQ  22239.91667824 -.01175590  00000-0 -64699-2 0  9997,2 53565  53.2176 114.5888 0006702  42.0057  19.9255 15.81478253  1307,6704.397,91.054,330.755,321.768,0.0
53565.0,STARLINK-4575,PAYLOAD,2022-08-28 14:00:01,15.79758873,0.0003005,53.2172,111.2511,12.5718,245.0309,-0.0072004999999999,-0.01201228,0.0,0 STARLINK-4575,1 53565U 22101AQ  22240.58334491 -.01201228  00000-0 -72005-2 0  9991,2 53565  53.2172 111.2511 0003005  12.5718 245.0309 15.79758873  1307,6709.26,91.153,333.141,329.1090000000001,0.0
53565.0,STARLINK-4575,PAYLOAD,2022-08-28 20:00:01,15.79103156,0.0002914,53.2174,110.0043,9.9257,229.9806,-0.0073653,-0.01193175,0.0,0 STARLINK-4575,1 53565U 22101AQ  22240.83334491 -.01193175  00000-0 -73653-2 0  9990,2 53565  53.2174 110.0043 0002914   9.9257 229.9806 15.79103156  1448,6711.1169999999975,91.191,334.9380000000001,331.027,0.0
53565.0,STARLINK-4575,PAYLOAD,2022-08-28 22:00:00,15.78889843,0.0003026,53.2173,109.5887,6.9424,346.9328,-0.0074761,-0.01198744,0.0,0 STARLINK-4575,1 53565U 22101AQ  22240.91667824 -.01198744  00000-0 -74761-2 0  9996,2 53565  53.2173 109.5887 0003026   6.9424 346.9328 15.78889843  1301,6711.722,91.203,335.61800000000005,331.556,0.0
53565.0,STARLINK-4575,PAYLOAD,2022-08-29 12:00:00,15.77373082,0.0003418999999999,53.2175,106.6793,344.0977,85.7469,-0.0080376,-0.01202824,0.0,0 STARLINK-4575,1 53565U 22101AQ  22241.50001157 -.01202824  00000-0 -80376-2 0  9997,2 53565  53.2175 106.6793 0003419 344.0977  85.7469 15.77373082  1555,6716.024,91.291,340.185,335.593,0.0
53565.0,STARLINK-4575,PAYLOAD,2022-08-29 14:00:01,15.77153473,0.0003421,53.2175,106.264,355.8065,187.4876,-0.0080758,-0.01197346,0.0,0 STARLINK-4575,1 53565U 22101AQ  22241.58334491 -.01197346  00000-0 -80758-2 0  9991,2 53565  53.2175 106.2640 0003421 355.8065 187.4876 15.77153473  1308,6716.647,91.304,340.81,336.214,0.0
53565.0,STARLINK-4575,PAYLOAD,2022-08-29 22:00:00,15.76273902,0.0003923,53.2175,104.608,330.7267,305.7146,-0.0082455,-0.01178066,0.0,0 STARLINK-4575,1 53565U 22101AQ  22241.91667824 -.01178066  00000-0 -82455-2 0  9991,2 53565  53.2175 104.6080 0003923 330.7267 305.7146 15.76273902  1305,6719.146,91.355,343.647,338.375,0.0
53565.0,STARLINK-4575,PAYLOAD,2022-08-30 06:00:00,15.75413901,3.43e-05,53.2172,102.9514,31.75800000000001,336.7825,-0.0086682,-0.01188546,0.0,0 STARLINK-4575,1 53565U 22101AQ  22242.25001157 -.01188546  00000-0 -86682-2 0  9990,2 53565  53.2172 102.9514 0000343  31.7580 336.7825 15.75413901  1665,6721.590999999999,91.405,343.686,343.225,0.0
53565.0,STARLINK-4575,PAYLOAD,2022-08-30 14:00:01,15.74618067,0.0001139999999999,53.2168,101.2966,58.8027,40.752,-0.0096423999999999,-0.01289603,0.0,0 STARLINK-4575,1 53565U 22101AQ  22242.58334491 -.01289603  00000-0 -96424-2 0  9997,2 53565  53.2168 101.2966 0001140  58.8027  40.7520 15.74618067  1309,6723.855,91.451,346.487,344.954,0.0
53565.0,STARLINK-4575,PAYLOAD,2022-08-30 20:00:01,15.73748898,0.0001261,53.2174,100.0588,62.7389,14.487,-0.0048078999999999,-0.00641282,0.0,0 STARLINK-4575,1 53565U 22101AQ  22242.83334491 -.00641282  00000-0 -48079-2 0  9992,2 53565  53.2174 100.0588 0001261  62.7389  14.4870 15.73748898  1763,6726.331,91.501,349.0440000000001,347.348,0.0
53565.0,STARLINK-4575,PAYLOAD,2022-08-30 22:00:00,15.73560869,0.0001328,53.2172,99.6471,81.2832,108.3395,-0.0035040999999999,-0.00473022,0.0,0 STARLINK-4575,1 53565U 22101AQ  22242.91667824 -.00473022  00000-0 -35041-2 0  9990,2 53565  53.2172  99.6471 0001328  81.2832 108.3395 15.73560869  1303,6726.8669999999975,91.512,349.625,347.838,0.0
53565.0,STARLINK-4575,PAYLOAD,2022-08-31 12:00:00,15.73172854,0.0001322,53.216,96.7603,76.9861,178.3033,0.00064809,0.00091222,0.0,0 STARLINK-4575,1 53565U 22101AQ  22243.50001157  .00091222  00000-0  64809-3 0  9998,2 53565  53.2160  96.7603 0001322  76.9861 178.3033 15.73172854  1862,6727.973000000001,91.535,350.727,348.9480000000001,0.0
53565.0,STARLINK-4575,PAYLOAD,2022-08-31 14:00:01,15.73146157,0.0001395,53.2166,96.3471,82.49799999999998,285.0269,0.0014439,0.00206606,0.0,0 STARLINK-4575,1 53565U 22101AQ  22243.58334491  .00206606  00000-0  14439-2 0  9993,2 53565  53.2166  96.3471 0001395  82.4980 285.0269 15.73146157  1304,6728.049,91.536,350.852,348.975,0.0
53565.0,STARLINK-4575,PAYLOAD,2022-08-31 20:00:01,15.73235394,0.0001348,53.2156,95.1137,70.1122,274.1114,4.1855e-05,5.266e-05,0.0,0 STARLINK-4575,1 53565U 22101AQ  22243.83334491  .00005266  00000-0  41855-4 0  9994,2 53565  53.2156  95.1137 0001348  70.1122 274.1114 15.73235394  1916,6727.794,91.531,350.566,348.75199999999984,0.0
53565.0,STARLINK-4575,PAYLOAD,2022-08-31 22:00:00,15.73227102,0.0001367,53.2156,94.7018,68.1437,28.3242,0.00023433,0.00032432,0.0,0 STARLINK-4575,1 53565U 22101AQ  22243.91667824  .00032432  00000-0  23433-3 0  9998,2 53565  53.2156  94.7018 0001367  68.1437  28.3242 15.73227102  1308,6727.818,91.532,350.603,348.76300000000015,0.0
53565.0,STARLINK-4575,PAYLOAD,2022-09-01 04:00:01,15.73263899,0.0001284,53.215,93.464,66.4576,6.8049,0.000155,0.00021247,0.0,0 STARLINK-4575,1 53565U 22101AQ  22244.16668981  .00021247  00000-0  15500-3 0  9999,2 53565  53.2150  93.4640 0001284  66.4576   6.8049 15.73263899  1974,6727.7130000000025,91.529,350.44199999999995,348.714,0.0
53565.0,STARLINK-4575,PAYLOAD,2022-09-01 14:00:01,15.73319732,9.47e-05,53.2157,91.4003,78.5005,196.0189,-0.00095951,-0.00133837,0.0,0 STARLINK-4575,1 53565U 22101AQ  22244.58335648 -.00133837  00000-0 -95951-3 0  9995,2 53565  53.2157  91.4003 0000947  78.5005 196.0189 15.73319732  1300,6727.554,91.526,350.056,348.782,0.0
53565.0,STARLINK-4575,PAYLOAD,2022-09-01 20:00:01,15.73222906,8.44e-05,53.2157,90.1647,57.2901,194.0092,-0.00050114,-0.0007042999999999,0.0,0 STARLINK-4575,1 53565U 22101AQ  22244.83335648 -.00070430  00000-0 -50114-3 0  9994,2 53565  53.2157  90.1647 0000844  57.2901 194.0092 15.73222906  2077,6727.83,91.532,350.26300000000015,349.12699999999984,0.0
